UNKNOWN                 
1 81779U          26022.47330232 -.00009541  00000+0 -52418+0 0  9997
2 81779  54.5286 148.4341 1552008  90.3672 287.4329  9.34272562484121
UNKNOWN                 
1 81792U          26018.27248162  .00002371  00000+0  84712-3 0  9993
2 81792  65.8274  13.7586 0896191 266.3044  83.5209 13.11111422 84826
UNKNOWN                 
1 81812U          26023.20421337  .00003572  00000+0  25426-1 0  9991
2 81812 103.8146 305.2055 0235193 170.6320 189.9233 12.37692790545697
UNKNOWN                 
1 81816U          26021.10942495  .00001243  00000+0  95521-3 0  9993
2 81816  66.2363 197.9583 0175558 223.9994 134.6995 13.89566714614810
UNKNOWN                 
1 81819U          26019.26473203  .00001136  00000+0  79989-2 0  9996
2 81819 102.1723 121.9588 0028628  41.2765 319.0460 12.47740488552695
UNKNOWN                 
1 81824U          26022.93463859  .00006705  00000+0  23109-2 0  9996
2 81824  65.8403 224.7878 0044029 311.5725  48.1598 14.35933369630507
UNKNOWN                 
1 81833U          26018.23549801  .00000219  00000+0  76826-3 0  9995
2 81833  90.2414   3.7011 0025643 290.3486  69.4877 12.93741453457230
UNKNOWN                 
1 81838U          26019.68915785  .00005938  00000+0  13083-2 0  9996
2 81838  67.7594 167.0648 0041123 329.9936  43.0835 14.57475351638868
UNKNOWN                 
1 81844U          26023.58871184  .00006058  00000+0  21480-2 0  9995
2 81844  82.9077 248.2309 0062560  24.5796 335.8351 14.33278427628881
UNKNOWN                 
1 81845U          26021.48634826  .00007109  00000+0  77650-3 0  9992
2 81845  97.6746 212.0706 0087489 173.4777 216.8762 14.85381644655425
UNKNOWN                 
1 81864U          26022.84947433  .00005166  00000+0  19591-2 0  9995
2 81864  65.6749 330.7786 0766134 355.3573   4.0625 13.32576021556315
UNKNOWN                 
1 81865U          26023.38727186  .00002259  00000+0  18536-2 0  9995
2 81865  82.8063 356.5262 0060492 246.3862 267.8905 13.88158352614325
